start=new Date('2022-02-07T00:00:00.000Z').valueOf();
sats=[{"TLE_LINE2":"2 46727  53.0563  73.8987 0001698  58.7373 301.3782 15.06380614 72624","EPOCH":"2022-02-06T19:32:59.087328","EPHEMERIS_TYPE":"0","APOAPSIS":"548.449","OBJECT_TYPE":"PAYLOAD","ARG_OF_PERICENTER":"58.7373","PERIOD":"95.593","COUNTRY_CODE":"US","TLE_LINE1":"1 46727U 20073BK  22037.81457277 -.00002358  00000-0 -13954-3 0  9998","REV_AT_EPOCH":"7262","MEAN_MOTION_DDOT":"0.0000000000000","ECCENTRICITY":"0.00016980","OBJECT_NAME":"STARLINK-1830","SITE":"AFETR","MEAN_MOTION_DOT":"-0.00002358","FILE":"3293822","RA_OF_ASC_NODE":"73.8987","RCS_SIZE":"LARGE","CLASSIFICATION_TYPE":"U","REF_FRAME":"TEME","GP_ID":"195443646","SEMIMAJOR_AXIS":"6925.408","NORAD_CAT_ID":"46727","TIME_SYSTEM":"UTC","PERIAPSIS":"546.097","ELEMENT_SET_NO":"999","MEAN_ANOMALY":"301.3782","OBJECT_ID":"2020-073BK","CENTER_NAME":"EARTH","MEAN_ELEMENT_THEORY":"SGP4","MEAN_MOTION":"15.06380614","LAUNCH_DATE":"2020-10-18","BSTAR":"-0.00013954000000","INCLINATION":"53.0563","DECAY_DATE":null},{"OBJECT_ID":"2020-073BL","MEAN_ELEMENT_THEORY":"SGP4","CENTER_NAME":"EARTH","DECAY_DATE":null,"LAUNCH_DATE":"2020-10-18","BSTAR":"0.00070016000000","INCLINATION":"53.0475","MEAN_MOTION":"15.81471225","NORAD_CAT_ID":"46728","SEMIMAJOR_AXIS":"6704.416","GP_ID":"195443397","REF_FRAME":"TEME","CLASSIFICATION_TYPE":"U","PERIAPSIS":"322.435","TIME_SYSTEM":"UTC","MEAN_ANOMALY":"314.8929","ELEMENT_SET_NO":"999","ECCENTRICITY":"0.00057370","FILE":"3293822","OBJECT_NAME":"STARLINK-1831","SITE":"AFETR","MEAN_MOTION_DOT":"0.00143889","RCS_SIZE":"LARGE","RA_OF_ASC_NODE":"38.5533","APOAPSIS":"330.128","EPHEMERIS_TYPE":"0","EPOCH":"2022-02-06T17:24:52.763616","TLE_LINE2":"2 46728  53.0475  38.5533 0005737  45.2559 314.8929 15.81471225 73105","OBJECT_TYPE":"PAYLOAD","PERIOD":"91.054","ARG_OF_PERICENTER":"45.2559","MEAN_MOTION_DDOT":"0.0000000000000","REV_AT_EPOCH":"7310","COUNTRY_CODE":"US","TLE_LINE1":"1 46728U 20073BL  22037.72561069  .00143889  00000-0  70016-3 0  9999"},{"APOAPSIS":"548.386","EPOCH":"2022-02-06T17:00:22.779072","TLE_LINE2":"2 46740  53.0530 184.3888 0001698  76.2143 283.9035 15.06401011 71722","EPHEMERIS_TYPE":"0","OBJECT_TYPE":"PAYLOAD","ARG_OF_PERICENTER":"76.2143","PERIOD":"95.592","REV_AT_EPOCH":"7172","MEAN_MOTION_DDOT":"0.0000000000000","TLE_LINE1":"1 46740U 20074B   22037.70859698  .00000388  00000-0  44936-4 0  9999","COUNTRY_CODE":"US","ECCENTRICITY":"0.00016980","FILE":"3293822","SITE":"AFETR","MEAN_MOTION_DOT":"0.00000388","OBJECT_NAME":"STARLINK-1848","RCS_SIZE":"LARGE","RA_OF_ASC_NODE":"184.3888","SEMIMAJOR_AXIS":"6925.345","NORAD_CAT_ID":"46740","CLASSIFICATION_TYPE":"U","REF_FRAME":"TEME","GP_ID":"195442645","TIME_SYSTEM":"UTC","PERIAPSIS":"546.035","MEAN_ANOMALY":"283.9035","ELEMENT_SET_NO":"999","OBJECT_ID":"2020-074B","CENTER_NAME":"EARTH","MEAN_ELEMENT_THEORY":"SGP4","DECAY_DATE":null,"MEAN_MOTION":"15.06401011","BSTAR":"0.00004493600000","LAUNCH_DATE":"2020-10-24","INCLINATION":"53.0530"},{"MEAN_ANOMALY":"285.1663","ELEMENT_SET_NO":"999","TIME_SYSTEM":"UTC","PERIAPSIS":"546.151","SEMIMAJOR_AXIS":"6925.379","NORAD_CAT_ID":"46741","CLASSIFICATION_TYPE":"U","GP_ID":"195442895","REF_FRAME":"TEME","DECAY_DATE":null,"MEAN_MOTION":"15.06390110","LAUNCH_DATE":"2020-10-24","INCLINATION":"53.0542","BSTAR":"-0.00011697000000","MEAN_ELEMENT_THEORY":"SGP4","OBJECT_ID":"2020-074C","CENTER_NAME":"EARTH","REV_AT_EPOCH":"7181","MEAN_MOTION_DDOT":"0.0000000000000","TLE_LINE1":"1 46741U 20074C   22037.79198778 -.00002023  00000-0 -11697-3 0  9991","COUNTRY_CODE":"US","ARG_OF_PERICENTER":"74.9501","PERIOD":"95.593","OBJECT_TYPE":"PAYLOAD","APOAPSIS":"548.337","EPOCH":"2022-02-06T19:00:27.744192","TLE_LINE2":"2 46741  53.0542 179.0075 0001578  74.9501 285.1663 15.06390110 71813","EPHEMERIS_TYPE":"0","RCS_SIZE":"LARGE","RA_OF_ASC_NODE":"179.0075","FILE":"3293822","MEAN_MOTION_DOT":"-0.00002023","SITE":"AFETR","OBJECT_NAME":"STARLINK-1865","ECCENTRICITY":"0.00015780"},{"MEAN_MOTION_DDOT":"0.0000000000000","REV_AT_EPOCH":"7180","COUNTRY_CODE":"US","TLE_LINE1":"1 46742U 20074D   22037.76249479 -.00001831  00000-0 -10408-3 0  9999","ARG_OF_PERICENTER":"68.4438","PERIOD":"95.593","OBJECT_TYPE":"PAYLOAD","APOAPSIS":"548.124","EPHEMERIS_TYPE":"0","TLE_LINE2":"2 46742  53.0539 179.1328 0001277  68.4438 291.6687 15.06391551 71802","EPOCH":"2022-02-06T18:17:59.549856","RCS_SIZE":"LARGE","RA_OF_ASC_NODE":"179.1328","FILE":"3293822","MEAN_MOTION_DOT":"-0.00001831","SITE":"AFETR","OBJECT_NAME":"STARLINK-1872","ECCENTRICITY":"0.00012770","MEAN_ANOMALY":"291.6687","ELEMENT_SET_NO":"999","TIME_SYSTEM":"UTC","PERIAPSIS":"546.355","NORAD_CAT_ID":"46742","SEMIMAJOR_AXIS":"6925.374","REF_FRAME":"TEME","GP_ID":"195443647","CLASSIFICATION_TYPE":"U","DECAY_DATE":null,"LAUNCH_DATE":"2020-10-24","BSTAR":"-0.00010408000000","INCLINATION":"53.0539","MEAN_MOTION":"15.06391551","MEAN_ELEMENT_THEORY":"SGP4","OBJECT_ID":"2020-074D","CENTER_NAME":"EARTH"},{"RA_OF_ASC_NODE":"179.3298","RCS_SIZE":"LARGE","SITE":"AFETR","MEAN_MOTION_DOT":"0.00000568","OBJECT_NAME":"STARLINK-1892","FILE":"3293822","ECCENTRICITY":"0.00009040","TLE_LINE1":"1 46743U 20074E   22037.71826443  .00000568  00000-0  57015-4 0  9997","COUNTRY_CODE":"US","REV_AT_EPOCH":"7180","MEAN_MOTION_DDOT":"0.0000000000000","PERIOD":"95.592","ARG_OF_PERICENTER":"142.2193","OBJECT_TYPE":"PAYLOAD","TLE_LINE2":"2 46743  53.0537 179.3298 0000904 142.2193 217.8860 15.06399434 71805","EPOCH":"2022-02-06T17:14:18.046752","EPHEMERIS_TYPE":"0","APOAPSIS":"547.841","MEAN_MOTION":"15.06399434","LAUNCH_DATE":"2020-10-24","INCLINATION":"53.0537","BSTAR":"0.00005701500000","DECAY_DATE":null,"MEAN_ELEMENT_THEORY":"SGP4","OBJECT_ID":"2020-074E","CENTER_NAME":"EARTH","ELEMENT_SET_NO":"999","MEAN_ANOMALY":"217.8860","TIME_SYSTEM":"UTC","PERIAPSIS":"546.589","CLASSIFICATION_TYPE":"U","GP_ID":"195443398","REF_FRAME":"TEME","SEMIMAJOR_AXIS":"6925.350","NORAD_CAT_ID":"46743"},{"EPHEMERIS_TYPE":"0","EPOCH":"2022-02-06T20:51:55.351296","TLE_LINE2":"2 46744  53.0543 178.6489 0001651  66.2643 293.8519 15.06383466 71827","APOAPSIS":"548.408","OBJECT_TYPE":"PAYLOAD","PERIOD":"95.593","ARG_OF_PERICENTER":"66.2643","COUNTRY_CODE":"US","TLE_LINE1":"1 46744U 20074F   22037.86939064 -.00002079  00000-0 -12078-3 0  9998","MEAN_MOTION_DDOT":"0.0000000000000","REV_AT_EPOCH":"7182","ECCENTRICITY":"0.00016510","OBJECT_NAME":"STARLINK-1894","SITE":"AFETR","MEAN_MOTION_DOT":"-0.00002079","FILE":"3293822","RA_OF_ASC_NODE":"178.6489","RCS_SIZE":"LARGE","REF_FRAME":"TEME","GP_ID":"195442146","CLASSIFICATION_TYPE":"U","NORAD_CAT_ID":"46744","SEMIMAJOR_AXIS":"6925.399","PERIAPSIS":"546.121","TIME_SYSTEM":"UTC","ELEMENT_SET_NO":"999","MEAN_ANOMALY":"293.8519","OBJECT_ID":"2020-074F","MEAN_ELEMENT_THEORY":"SGP4","CENTER_NAME":"EARTH","LAUNCH_DATE":"2020-10-24","INCLINATION":"53.0543","BSTAR":"-0.00012078000000","MEAN_MOTION":"15.06383466","DECAY_DATE":null},{"CLASSIFICATION_TYPE":"U","GP_ID":"195442396","REF_FRAME":"TEME","SEMIMAJOR_AXIS":"6811.084","NORAD_CAT_ID":"46745","ELEMENT_SET_NO":"999","MEAN_ANOMALY":"44.6295","TIME_SYSTEM":"UTC","PERIAPSIS":"430.911","OBJECT_ID":"2020-074G","CENTER_NAME":"EARTH","MEAN_ELEMENT_THEORY":"SGP4","MEAN_MOTION":"15.44466252","LAUNCH_DATE":"2020-10-24","INCLINATION":"53.0541","BSTAR":"0.00201250000000","DECAY_DATE":null,"OBJECT_TYPE":"PAYLOAD","EPOCH":"2022-02-06T16:40:51.818016","TLE_LINE2":"2 46745  53.0541 158.3119 0002992 315.4470  44.6295 15.44466252 72097","EPHEMERIS_TYPE":"0","APOAPSIS":"434.987","TLE_LINE1":"1 46745U 20074G   22037.69504419  .00095432  00000-0  20125-2 0  9996","COUNTRY_CODE":"US","REV_AT_EPOCH":"7209","MEAN_MOTION_DDOT":"0.0000000000000","PERIOD":"93.236","ARG_OF_PERICENTER":"315.4470","ECCENTRICITY":"0.00029920","RA_OF_ASC_NODE":"158.3119","RCS_SIZE":"LARGE","SITE":"AFETR","OBJECT_NAME":"STARLINK-1898","MEAN_MOTION_DOT":"0.00095432","FILE":"3293822"},{"PERIOD":"95.593","ARG_OF_PERICENTER":"81.8608","REV_AT_EPOCH":"7181","MEAN_MOTION_DDOT":"0.0000000000000","TLE_LINE1":"1 46746U 20074H   22037.81779571 -.00000531  00000-0 -16758-4 0  9991","COUNTRY_CODE":"US","APOAPSIS":"548.316","TLE_LINE2":"2 46746  53.0548 178.8886 0001538  81.8608 278.2556 15.06387789 71814","EPOCH":"2022-02-06T19:37:37.549344","EPHEMERIS_TYPE":"0","OBJECT_TYPE":"PAYLOAD","FILE":"3293822","SITE":"AFETR","OBJECT_NAME":"STARLINK-1905","MEAN_MOTION_DOT":"-0.00000531","RCS_SIZE":"LARGE","RA_OF_ASC_NODE":"178.8886","ECCENTRICITY":"0.00015380","TIME_SYSTEM":"UTC","PERIAPSIS":"546.186","MEAN_ANOMALY":"278.2556","ELEMENT_SET_NO":"999","SEMIMAJOR_AXIS":"6925.386","NORAD_CAT_ID":"46746","CLASSIFICATION_TYPE":"U","GP_ID":"195443148","REF_FRAME":"TEME","DECAY_DATE":null,"MEAN_MOTION":"15.06387789","INCLINATION":"53.0548","LAUNCH_DATE":"2020-10-24","BSTAR":"-0.00001675800000","OBJECT_ID":"2020-074H","CENTER_NAME":"EARTH","MEAN_ELEMENT_THEORY":"SGP4"},{"REF_FRAME":"TEME","GP_ID":"195443898","CLASSIFICATION_TYPE":"U","NORAD_CAT_ID":"46747","SEMIMAJOR_AXIS":"6925.394","PERIAPSIS":"546.251","TIME_SYSTEM":"UTC","ELEMENT_SET_NO":"999","MEAN_ANOMALY":"280.5785","OBJECT_ID":"2020-074J","MEAN_ELEMENT_THEORY":"SGP4","CENTER_NAME":"EARTH","LAUNCH_DATE":"2020-10-24","INCLINATION":"53.0559","BSTAR":"-0.00006110800000","MEAN_MOTION":"15.06385151","DECAY_DATE":null,"EPHEMERIS_TYPE":"0","TLE_LINE2":"2 46747  53.0559 178.9609 0001455  79.5368 280.5785 15.06385151 71817","EPOCH":"2022-02-06T19:11:04.621056","APOAPSIS":"548.267","OBJECT_TYPE":"PAYLOAD","PERIOD":"95.593","ARG_OF_PERICENTER":"79.5368","COUNTRY_CODE":"US","TLE_LINE1":"1 46747U 20074J   22037.79935904 -.00001191  00000-0 -61108-4 0  9995","MEAN_MOTION_DDOT":"0.0000000000000","REV_AT_EPOCH":"7181","ECCENTRICITY":"0.00014550","SITE":"AFETR","MEAN_MOTION_DOT":"-0.00001191","OBJECT_NAME":"STARLINK-1908","FILE":"3293822","RA_OF_ASC_NODE":"178.9609","RCS_SIZE":"LARGE"}];
